CTC2_L_00072016-03
1 10062U 25027KN  26075.70041667  .00000000  00000+0  00000-0 0  9995
2 10062  45.0000 180.0000 0000000   0.0000   0.0000 15.28598846    16
CTC2_L_00072016-04
1 10063U 22323VL  26075.70041667  .00000000  00000+0  00000-0 0  9992
2 10063  45.0000 180.0000 0000000   0.0000  90.0000 15.28598846    16
CTC2_L_00072017-01
1 10064U 22280LR  26075.70041667  .00000000  00000+0  00000-0 0  9995
2 10064  45.0000 192.0000 0000000   0.0000 192.0000 15.28598846    13
CTC2_L_00072017-02
1 10065U 22319QU  26075.70041667  .00000000  00000+0  00000-0 0  9999
2 10065  45.0000 192.0000 0000000   0.0000 282.0000 15.28598846    14
CTC2_L_00072017-03
1 10066U 22981GU  26075.70041667  .00000000  00000+0  00000-0 0  9995
2 10066  45.0000 192.0000 0000000   0.0000  12.0000 15.28598846    16
CTC2_L_00072017-04
1 10067U 23237PX  26075.70041667  .00000000  00000+0  00000-0 0  9991
2 10067  45.0000 192.0000 0000000   0.0000 102.0000 15.28598846    17
CTC2_L_00072018-01
1 10068U 25453MF  26075.70041667  .00000000  00000+0  00000-0 0  9994
2 10068  45.0000 204.0000 0000000   0.0000 204.0000 15.28598846    15
CTC2_L_00072018-02
1 10069U 22409LZ  26075.70041667  .00000000  00000+0  00000-0 0  9993
2 10069  45.0000 204.0000 0000000   0.0000 294.0000 15.28598846    15
CTC2_L_00072018-03
1 10070U 25067GQ  26075.70041667  .00000000  00000+0  00000-0 0  9998
2 10070  45.0000 204.0000 0000000   0.0000  24.0000 15.28598846    18
CTC2_L_00072018-04
1 10071U 24687KR  26075.70041667  .00000000  00000+0  00000-0 0  9996
2 10071  45.0000 204.0000 0000000   0.0000 114.0000 15.28598846    19
CTC2_L_00072019-01
1 10072U 24746NQ  26075.70041667  .00000000  00000+0  00000-0 0  9993
2 10072  45.0000 216.0000 0000000   0.0000 216.0000 15.28598846    16
CTC2_L_00072019-02
1 10073U 25247KG  26075.70041667  .00000000  00000+0  00000-0 0  9991
2 10073  45.0000 216.0000 0000000   0.0000 306.0000 15.28598846    17
CTC2_L_00072019-03
1 10074U 22437YQ  26075.70041667  .00000000  00000+0  00000-0 0  9990
2 10074  45.0000 216.0000 0000000   0.0000  36.0000 15.28598846    18
CTC2_L_00072019-04
1 10075U 24215ET  26075.70041667  .00000000  00000+0  00000-0 0  9997
2 10075  45.0000 216.0000 0000000   0.0000 126.0000 15.28598846    19
CTC2_L_00072020-01
1 10076U 23400GH  26075.70041667  .00000000  00000+0  00000-0 0  9993
2 10076  45.0000 228.0000 0000000   0.0000 228.0000 15.28598846    16
CTC2_L_00072020-02
1 10077U 26568ZK  26075.70041667  .00000000  00000+0  00000-0 0  9992
2 10077  45.0000 228.0000 0000000   0.0000 318.0000 15.28598846    17
CTC2_L_00072020-03
1 10078U 24820S   26075.70041667  .00000000  00000+0  00000-0 0  9992
2 10078  45.0000 228.0000 0000000   0.0000  48.0000 15.28598846    18
CTC2_L_00072020-04
1 10079U 25553WG  26075.70041667  .00000000  00000+0  00000-0 0  9997
2 10079  45.0000 228.0000 0000000   0.0000 138.0000 15.28598846    19
CTC2_L_00072021-01
1 10080U 22515HA  26075.70041667  .00000000  00000+0  00000-0 0  9994
2 10080  45.0000 240.0000 0000000   0.0000 240.0000 15.28598846    19
CTC2_L_00072021-02
1 10081U 23977OF  26075.70041667  .00000000  00000+0  00000-0 0  9998
2 10081  45.0000 240.0000 0000000   0.0000 330.0000 15.28598846    10
CTC2_L_00072021-03
1 10082U 22898CZ  26075.70041667  .00000000  00000+0  00000-0 0  9990
2 10082  45.0000 240.0000 0000000   0.0000  60.0000 15.28598846    11
CTC2_L_00072021-04
1 10083U 24096EK  26075.70041667  .00000000  00000+0  00000-0 0  9993
2 10083  45.0000 240.0000 0000000   0.0000 150.0000 15.28598846    12
CTC2_L_00072022-01
1 10084U 26282UD  26075.70041667  .00000000  00000+0  00000-0 0  9993
2 10084  45.0000 252.0000 0000000   0.0000 252.0000 15.28598846    19
CTC2_L_00072022-02
1 10085U 25722JF  26075.70041667  .00000000  00000+0  00000-0 0  9992
2 10085  45.0000 252.0000 0000000   0.0000 342.0000 15.28598846    10
CTC2_L_00072022-03
1 10086U 26528MG  26075.70041667  .00000000  00000+0  00000-0 0  9998
2 10086  45.0000 252.0000 0000000   0.0000  72.0000 15.28598846    11
CTC2_L_00072022-04
1 10087U 23959JI  26075.70041667  .00000000  00000+0  00000-0 0  9994
2 10087  45.0000 252.0000 0000000   0.0000 162.0000 15.28598846    12
CTC2_L_00072023-01
1 10088U 24351HU  26075.70041667  .00000000  00000+0  00000-0 0  9992
2 10088  45.0000 264.0000 0000000   0.0000 264.0000 15.28598846    19
CTC2_L_00072023-02
1 10089U 26492WU  26075.70041667  .00000000  00000+0  00000-0 0  9991
2 10089  45.0000 264.0000 0000000   0.0000 354.0000 15.28598846    10
CTC2_L_00072023-03
1 10090U 25567DC  26075.70041667  .00000000  00000+0  00000-0 0  9995
2 10090  45.0000 264.0000 0000000   0.0000  84.0000 15.28598846    12
CTC2_L_00072023-04
1 10091U 24428NL  26075.70041667  .00000000  00000+0  00000-0 0  9991
2 10091  45.0000 264.0000 0000000   0.0000 174.0000 15.28598846    13
CTC2_L_00072024-01
1 10092U 24556LV  26075.70041667  .00000000  00000+0  00000-0 0  9994
2 10092  45.0000 276.0000 0000000   0.0000 276.0000 15.28598846    10
CTC2_L_00072024-02
1 10093U 22387JD  26075.70041667  .00000000  00000+0  00000-0 0  9995
2 10093  45.0000 276.0000 0000000   0.0000   6.0000 15.28598846    12
CTC2_L_00072024-03
1 10094U 23074YM  26075.70041667  .00000000  00000+0  00000-0 0  9990
2 10094  45.0000 276.0000 0000000   0.0000  96.0000 15.28598846    12
CTC2_L_00072024-04
1 10095U 24674ES  26075.70041667  .00000000  00000+0  00000-0 0  9998
2 10095  45.0000 276.0000 0000000   0.0000 186.0000 15.28598846    13
CTC2_L_00072025-01
1 10096U 22030GI  26075.70041667  .00000000  00000+0  00000-0 0  9993
2 10096  45.0000 288.0000 0000000   0.0000 288.0000 15.28598846    10
CTC2_L_00072025-02
1 10097U 25600BO  26075.70041667  .00000000  00000+0  00000-0 0  9990
2 10097  45.0000 288.0000 0000000   0.0000  18.0000 15.28598846    12
CTC2_L_00072025-03
1 10098U 24455JZ  26075.70041667  .00000000  00000+0  00000-0 0  9998
2 10098  45.0000 288.0000 0000000   0.0000 108.0000 15.28598846    13
CTC2_L_00072025-04
1 10099U 26032YA  26075.70041667  .00000000  00000+0  00000-0 0  9992
2 10099  45.0000 288.0000 0000000   0.0000 198.0000 15.28598846    13
CTC2_L_00072026-01
1 10100U 22303OA  26075.70041667  .00000000  00000+0  00000-0 0  9992
2 10100  45.0000 300.0000 0000000   0.0000 300.0000 15.28598846    16
CTC2_L_00072026-02
1 10101U 23948OM  26075.70041667  .00000000  00000+0  00000-0 0  9999
2 10101  45.0000 300.0000 0000000   0.0000  30.0000 15.28598846    17
CTC2_L_00072026-03
1 10102U 25669OX  26075.70041667  .00000000  00000+0  00000-0 0  9992
2 10102  45.0000 300.0000 0000000   0.0000 120.0000 15.28598846    18
CTC2_L_00072026-04
1 10103U 26173NS  26075.70041667  .00000000  00000+0  00000-0 0  9994
2 10103  45.0000 300.0000 0000000   0.0000 210.0000 15.28598846    19
CTC2_L_00072027-01
1 10104U 23654FU  26075.70041667  .00000000  00000+0  00000-0 0  9996
2 10104  45.0000 312.0000 0000000   0.0000 312.0000 15.28598846    16
CTC2_L_00072027-02
1 10105U 24771PM  26075.70041667  .00000000  00000+0  00000-0 0  9998
2 10105  45.0000 312.0000 0000000   0.0000  42.0000 15.28598846    17
CTC2_L_00072027-03
1 10106U 23856ZZ  26075.70041667  .00000000  00000+0  00000-0 0  9992
2 10106  45.0000 312.0000 0000000   0.0000 132.0000 15.28598846    18
CTC2_L_00072027-04
1 10107U 26913QY  26075.70041667  .00000000  00000+0  00000-0 0  9990
2 10107  45.0000 312.0000 0000000   0.0000 222.0000 15.28598846    19
CTC2_L_00072028-01
1 10108U 26337AJ  26075.70041667  .00000000  00000+0  00000-0 0  9991
2 10108  45.0000 324.0000 0000000   0.0000 324.0000 15.28598846    16
CTC2_L_00072028-02
1 10109U 26226OK  26075.70041667  .00000000  00000+0  00000-0 0  9999
2 10109  45.0000 324.0000 0000000   0.0000  54.0000 15.28598846    17
CTC2_L_00072028-03
1 10110U 22797PX  26075.70041667  .00000000  00000+0  00000-0 0  9990
2 10110  45.0000 324.0000 0000000   0.0000 144.0000 15.28598846    19
CTC2_L_00072028-04
1 10111U 24306CZ  26075.70041667  .00000000  00000+0  00000-0 0  9999
2 10111  45.0000 324.0000 0000000   0.0000 234.0000 15.28598846    10
CTC2_L_00072029-01
1 10112U 24637GL  26075.70041667  .00000000  00000+0  00000-0 0  9997
2 10112  45.0000 336.0000 0000000   0.0000 336.0000 15.28598846    17
CTC2_L_00072029-02
1 10113U 22985RH  26075.70041667  .00000000  00000+0  00000-0 0  9992
2 10113  45.0000 336.0000 0000000   0.0000  66.0000 15.28598846    18
CTC2_L_00072029-03
1 10114U 25315ZK  26075.70041667  .00000000  00000+0  00000-0 0  9993
2 10114  45.0000 336.0000 0000000   0.0000 156.0000 15.28598846    19
CTC2_L_00072029-04
1 10115U 22166LS  26075.70041667  .00000000  00000+0  00000-0 0  9995
2 10115  45.0000 336.0000 0000000   0.0000 246.0000 15.28598846    10
CTC2_L_00072030-01
1 10116U 22302VW  26075.70041667  .00000000  00000+0  00000-0 0  9998
2 10116  45.0000 348.0000 0000000   0.0000 348.0000 15.28598846    17
CTC2_L_00072030-02
1 10117U 23389NB  26075.70041667  .00000000  00000+0  00000-0 0  9995
2 10117  45.0000 348.0000 0000000   0.0000  78.0000 15.28598846    18
CTC2_L_00072030-03
1 10118U 24239LI  26075.70041667  .00000000  00000+0  00000-0 0  9991
2 10118  45.0000 348.0000 0000000   0.0000 168.0000 15.28598846    19
CTC2_L_00072030-04
1 10119U 24420KG  26075.70041667  .00000000  00000+0  00000-0 0  9994
2 10119  45.0000 348.0000 0000000   0.0000 258.0000 15.28598846    10
